OBJECT_NAME,OBJECT_ID,EPOCH,MEAN_MOTION,ECCENTRICITY,INCLINATION,RA_OF_ASC_NODE,ARG_OF_PERICENTER,MEAN_ANOMALY,EPHEMERIS_TYPE,CLASSIFICATION_TYPE,NORAD_CAT_ID,ELEMENT_SET_NO,REV_AT_EPOCH,BSTAR,MEAN_MOTION_DOT,MEAN_MOTION_DDOT
OCEANSAT-2,2009-051A,2026-06-26T16:58:19.590816,13.99661391,.0016005,98.2319,163.6086,207.4568,152.5754,0,U,35931,999,88066,-.14026E-3,-.243E-5,0
WORLDVIEW-2 (WV-2),2009-055A,2026-06-26T16:43:47.864928,14.37901891,.0004288,98.4769,251.0156,178.6579,181.4620,0,U,35946,999,87701,-.89126E-4,-.313E-5,0
SMOS,2009-059A,2026-06-26T12:02:46.434912,14.39777236,.0001313,98.4425,4.7004,88.8684,271.2655,0,U,36036,999,87479,.89722E-4,.238E-5,0
YAOGAN-7,2009-069A,2026-06-26T15:13:30.227232,14.78018524,.0024912,98.0062,63.4426,12.1779,348.0029,0,U,36110,999,89102,.69736E-4,.453E-5,0
TANDEM-X,2010-030A,2026-06-26T14:39:40.675680,15.19151603,.0001782,97.4451,185.1838,93.2192,266.9246,0,U,36605,999,88807,.16557E-4,.281E-5,0
CARTOSAT-2B,2010-035A,2026-06-26T17:53:54.254976,14.78671959,.0011959,97.9954,228.2349,153.2524,206.9306,0,U,36795,999,86126,.7829E-4,.522E-5,0
YAOGAN-10,2010-038A,2026-06-26T18:44:13.591104,14.85379037,.0001772,97.8979,201.1085,84.6561,328.2650,0,U,36834,999,85863,.27321E-3,.2298E-4,0
COSMO-SKYMED 4,2010-060A,2026-06-26T18:14:41.545248,14.82153396,.0001498,97.8891,1.2215,85.3636,274.7748,0,U,37216,999,84598,.70209E-4,.507E-5,0
RESOURCESAT-2,2011-015A,2026-06-26T17:33:18.410112,14.21601946,.0010523,98.7641,245.1073,225.3291,134.7029,0,U,37387,999,78753,.55557E-4,.78E-6,0
HAIYANG-2A,2011-043A,2026-06-26T13:49:04.838016,13.74055066,.0005019,99.3402,180.0435,73.9032,286.2669,0,U,37781,999,74794,.70444E-4,.23E-6,0
RASAT,2011-044D,2026-06-26T19:08:40.911072,14.68175919,.0020895,98.0576,269.0480,158.2618,319.6643,0,U,37791,999,79459,.14256E-3,.774E-5,0
SRMSAT,2011-058D,2026-06-26T13:05:37.311072,14.11577357,.0011715,19.9735,2.8256,307.2404,82.9527,0,U,37841,999,75914,.568E-4,.37E-5,0
PLEIADES 1A,2011-076F,2026-06-26T17:44:52.759392,14.58537287,.0001773,98.1977,252.7144,89.4641,22.4948,0,U,38012,999,77338,.12701E-3,.545E-5,0
ZIYUAN 1-02C (ZY 1-02C),2011-079A,2026-06-26T18:08:03.738048,14.38222541,.0005163,98.4072,244.8643,282.6016,189.4693,0,U,38038,999,76058,.20845E-3,.59E-5,0
ARIRANG-3 (KOMPSAT-3),2012-025B,2026-06-26T17:59:45.310272,14.62213912,.0006813,98.1174,135.0449,85.5654,274.6326,0,U,38338,999,75274,.89321E-4,.403E-5,0
EXACTVIEW-1 (ADS-1B),2012-039C,2026-06-26T13:54:27.839232,14.24987136,.0011607,98.9787,295.1822,140.5953,219.6071,0,U,38709,999,72404,.58546E-4,.91E-6,0
SPOT 6,2012-047A,2026-06-26T17:36:11.160000,14.58527551,.000134,98.2120,244.9310,73.6744,286.4603,0,U,38755,999,73444,.48458E-4,.179E-5,0
PLEIADES 1B,2012-068A,2026-06-26T16:24:33.590304,14.58566755,.0001718,98.1947,252.6048,85.7073,274.4322,0,U,39019,999,72223,.12822E-3,.551E-5,0
GOKTURK 2,2012-073A,2026-06-26T18:40:21.678816,14.75552049,.000122,97.6821,14.7288,57.5042,302.6286,0,U,39030,999,72592,.10047E-3,.637E-5,0
LANDSAT 8,2013-008A,2026-06-26T16:58:24.830112,14.57100279,.0001359,98.2299,247.7293,93.5528,266.5826,0,U,39084,999,69928,.71873E-4,.278E-5,0
SARAL,2013-009A,2026-06-26T17:56:12.881184,14.32858091,.0000709,98.5557,4.1934,231.6635,128.4485,0,U,39086,999,69697,.44617E-4,.78E-6,0
GAOFEN-1,2013-018A,2026-06-26T18:05:18.892032,14.76546221,.001586,97.9094,249.6275,232.9466,127.0294,0,U,39150,999,70965,.10191E-3,.661E-5,0
VNREDSAT 1,2013-021B,2026-06-26T17:17:12.643008,14.64866292,.0001744,97.9081,230.7711,84.2309,275.9094,0,U,39160,999,70168,.13244E-3,.662E-5,0
ARIRANG-5 (KOMPSAT-5),2013-042A,2026-06-26T16:14:43.239840,15.04512439,.0005135,97.6190,4.2436,100.4050,259.7755,0,U,39227,999,70528,.13114E-3,.1776E-4,0
SKYSAT-A,2013-066C,2026-06-26T17:09:15.811776,15.13022639,.0019636,97.3811,226.8082,282.0342,77.8689,0,U,39418,999,68992,.15093E-3,.2613E-4,0
DUBAISAT-2,2013-066D,2026-06-26T17:51:57.327264,15.10248843,.0011425,97.4561,167.6381,10.8307,349.3166,0,U,39419,999,68783,.23837E-3,.3842E-4,0
GPM-CORE,2014-009C,2026-06-26T15:53:21.236640,15.44764959,.001146,64.9721,276.3900,255.3825,104.6045,0,U,39574,999,69927,.23143E-3,.1067E-3,0
SENTINEL-1A,2014-016A,2026-06-26T18:16:57.074880,14.59200339,.0001392,98.1780,185.1545,82.9433,277.1925,0,U,39634,999,65141,.15185E-4,.26E-6,0
KAZEOSAT 1,2014-024A,2026-06-26T17:39:09.749664,14.42084357,.0001225,98.3206,249.9455,73.6643,286.4682,0,U,39731,999,63993,.13657E-3,.406E-5,0
ALOS-2,2014-029A,2026-06-26T17:49:58.215360,14.79471666,.0001589,97.9220,274.7701,88.9890,271.1504,0,U,39766,999,65299,.17682E-3,.1269E-4,0
KAZEOSAT 2,2014-033A,2026-06-26T19:05:02.693184,14.85482784,.0007114,97.5408,16.8995,293.5729,66.4739,0,U,40010,999,65038,.1301E-3,.1073E-4,0
